satname,norad_id,inclination_deg,eccentricity,mean_motion_rev_per_day,perigee_km,apogee_km,l1,l2
STARLINK-1008,44714,53.0548,0.0001582,15.06396928,546.1253815604705,548.316564823188,1 44714U 19074B   25303.00154033  .00000462  00000+0  49899-4 0  9994,2 44714  53.0548  53.2968 0001582  94.5735 265.5434 15.06396928329056
STARLINK-1010,44716,53.0419,0.000541,15.99014875,273.5502587009869,280.75128006746036,1 44716U 19074D   25303.91668980  .00525740  13009-3  10637-2 0  9991,2 44716  53.0419 334.9488 0005410  58.2909 211.1204 15.99014875  6060
STARLINK-1011,44717,53.048,0.0004102,15.85352567,312.58651669073333,318.0778388041572,1 44717U 19074E   25303.91668980  .00191372  00000+0  77055-3 0  9993,2 44717  53.0480  32.0260 0004102 313.0686 341.5275 15.85352567  5933
STARLINK-1012,44718,53.0546,0.0001906,15.06391321,545.918181445878,548.5581344560896,1 44718U 19074F   25303.70923678 -.00000773  00000+0 -32990-4 0  9995,2 44718  53.0546  50.1200 0001906 127.1563 232.9601 15.06391321329152
STARLINK-1017,44723,53.0496,0.0001403,15.14836838,520.5059349524163,522.4419657850904,1 44723U 19074L   25303.02841898  .00059557  00000+0  31569-2 0  9990,2 44723  53.0496  49.8615 0001403 220.9573 139.1315 15.14836838329103
STARLINK-1019,44724,53.0535,0.0001314,15.14396109,521.9057458836187,523.7193154202732,1 44724U 19074M   25303.91668980  .00752003  00000+0  37533-1 0  9990,2 44724  53.0535  49.0452 0001314  73.3780  69.9348 15.14396109  5749
STARLINK-1020,44725,53.0537,0.0001318,15.06406167,546.2798985871723,548.105415484767,1 44725U 19074N   25302.78222732  .00002301  00000+0  17325-3 0  9994,2 44725  53.0537  74.2847 0001318  92.0966 268.0173 15.06406167328730
STARLINK-1031,44736,53.0503,0.0005005,15.47095523,421.8226595137803,428.632827622092,1 44736U 19074Z   25302.46886652  .00098194  00000+0  18911-2 0  9994,2 44736  53.0503  45.5941 0005005 230.7773 129.2789 15.47095523329125
STARLINK-1036,44741,53.0551,0.0001421,15.06395451,546.2414059919347,548.2095940144354,1 44741U 19074AE  25303.74057341 -.00000224  00000+0  38508-5 0  9992,2 44741  53.0551  69.9805 0001421  88.3882 271.7269 15.06395451328885
STARLINK-1039,44744,53.0507,0.0005721,15.12724963,523.9430920714321,531.8449727787338,1 44744U 19074AH  25303.81037775  .00061604  00000+0  34620-2 0  9998,2 44744  53.0507  87.6642 0005721 145.6909 214.4453 15.12724963328643
STARLINK-1042,44747,53.0485,0.0003301,15.43028162,434.92836143248496,439.42783245948885,1 44747U 19074AL  25303.29576733  .00025680  00000+0  58042-3 0  9994,2 44747  53.0485 357.1713 0003301  91.1557 268.9826 15.43028162329899
STARLINK-1043,44748,53.0536,0.0001279,15.06406687,546.3053138628975,548.0768127814954,1 44748U 19074AM  25303.11579221  .00000878  00000+0  77840-4 0  9991,2 44748  53.0536  92.7858 0001279  84.3570 275.7565 15.06406687328515
STARLINK-1046,44751,53.051,0.0001343,15.06399756,546.2822313514707,548.1423801749997,1 44751U 19074AQ  25303.79401722  .00000014  00000+0  19857-4 0  9995,2 44751  53.0510  89.7396 0001343  88.9721 271.1422 15.06399756328615
STARLINK-1047,44752,53.0723,0.0003584,15.29191479,475.770664976807,480.68530739890684,1 44752U 19074AR  25302.99474745  .00015036  00000+0  53495-3 0  9997,2 44752  53.0723  35.0039 0003584 153.6169 206.5014 15.29191479329320
STARLINK-1048,44753,53.0538,0.0002434,15.06400214,545.5252723798167,548.8965317385391,1 44753U 19074AS  25303.02365538  .00000729  00000+0  67864-4 0  9991,2 44753  53.0538  53.1975 0002434  76.9015 283.2246 15.06400214329059
STARLINK-1053,44758,53.0422,0.0002848,15.60128731,385.35810589330686,389.2116902064354,1 44758U 19074AX  25302.61989045  .00060472  00000+0  73166-3 0  9997,2 44758  53.0422  14.0484 0002848  24.4017 335.7130 15.60128731329580
STARLINK-1054,44759,53.0369,0.0006086,15.91646564,293.6118873489622,301.7376854553713,1 44759U 19074AY  25303.91668980  .00480239  10009-3  14475-2 0  9992,2 44759  53.0369  31.7448 0006086 328.7927  85.5909 15.91646564  5820
STARLINK-1056,44761,53.0368,0.0004663,16.0632763,253.8428217450255,260.03069153046636,1 44761U 19074BA  25303.68014711  .00685581  24628-3  89903-3 0  9994,2 44761  53.0368  18.7049 0004663  18.0121 342.1076 16.06327630329607
STARLINK-1060,44765,53.0526,0.0003542,15.62481434,378.0979400831684,382.885752757973,1 44765U 19074BE  25303.91668980  .00144042  00000+0  15675-2 0  9997,2 44765  53.0526  53.9136 0003542 348.1068 301.7065 15.62481434  5904
STARLINK-1063,44768,53.0544,0.0001289,15.06393648,546.3383460332816,548.1237059103778,1 44768U 19074BH  25303.78296102 -.00000276  00000+0  34425-6 0  9997,2 44768  53.0544  89.7922 0001289  90.6524 269.4613 15.06393648328622
STARLINK-1067,44771,53.0544,0.0001439,15.06395318,546.2293479087039,548.2224673535211,1 44771U 19074BL  25303.70555362 -.00000719  00000+0 -29404-4 0  9991,2 44771  53.0544  90.1397 0001439  86.8515 273.2639 15.06395318328607
STARLINK-1068,44772,53.0533,0.0001507,15.0640025,546.1671418121778,548.2544416366036,1 44772U 19074BM  25303.69633689 -.00000239  00000+0  28225-5 0  9996,2 44772  53.0533  70.1810 0001507  78.6284 281.4874 15.06400250328875
STARLINK-1112,44925,53.0488,0.0004906,15.54635844,399.88446302135253,406.53832206411516,1 44925U 20001M   25302.91799590  .00045636  00000+0  68057-3 0  9990,2 44925  53.0488 171.9853 0004906 140.2876 219.8494 15.54635844320721
STARLINK-1114,44927,53.0533,0.000153,15.06406705,546.1314329699499,548.2505833404448,1 44927U 20001P   25303.73504300  .00003957  00000+0  28435-3 0  9992,2 44927  53.0533 210.0104 0001530  88.9793 271.1371 15.06406705320267
STARLINK-1123,44930,53.0539,0.0001638,15.06410413,546.0452769106123,548.3140106431138,1 44930U 20001S   25303.74978435  .00002869  00000+0  21138-3 0  9995,2 44930  53.0539 209.9420 0001638  90.2435 269.8741 15.06410413320269
STARLINK-1144,44933,53.0437,0.001188,15.6013876,379.2186179225846,395.2931914641358,1 44933U 20001V   25303.91668980  .00164680  00000+0  19502-2 0  9999,2 44933  53.0437 144.2391 0011880  94.3514  74.9243 15.60138760  5983
STARLINK-1091,44940,53.0329,0.0004973,16.01331909,267.4228631212127,274.03582558730704,1 44940U 20001AC  25303.23616572  .00598517  17317-3  10602-2 0  9997,2 44940  53.0329 123.9166 0004973 289.3115  70.7377 16.01331909321410
STARLINK-1094,44941,53.0526,0.0001375,15.06401718,546.2540578179978,548.1585272234397,1 44941U 20001AD  25302.96651949 -.00003221  00000+0 -19744-3 0  9993,2 44941  53.0526 193.4607 0001375  76.1006 284.0136 15.06401718320429
STARLINK-1096,44942,52.9865,0.0007652,15.90292261,296.3531268730294,306.57558879105636,1 44942U 20001AE  25303.91668980  .00311449  46913-4  10086-2 0  9992,2 44942  52.9865 308.2913 0007652  47.5515 172.9673 15.90292261  5853
STARLINK-1122,44949,53.0533,0.0001206,15.06408143,546.3514069022367,548.0217949547805,1 44949U 20001AM  25303.71845757  .00003411  00000+0  24769-3 0  9999,2 44949  53.0533 190.0807 0001206  85.7218 274.3908 15.06408143320534
STARLINK-1080,44961,53.0529,0.0001415,15.06421648,546.1652832978871,548.1251381635248,1 44961U 20001AZ  25302.92045278  .00010032  00000+0  69101-3 0  9991,2 44961  53.0529 173.6658 0001415  85.7986 274.3165 15.06421648320707
STARLINK-1090,44968,53.053,0.000142,15.06415271,546.1813620688908,548.1481477672878,1 44968U 20001BG  25302.92413319  .00004898  00000+0  34735-3 0  9991,2 44968  53.0530 173.6497 0001420  90.7007 269.4145 15.06415271320701
STARLINK-1107,44972,53.0072,0.0004433,15.68078602,361.41026770724693,367.3882003323288,1 44972U 20001BL  25303.91668980  .00249327  00000+0  21394-2 0  9996,2 44972  53.0072  83.9538 0004433 269.4516  97.3601 15.68078602  5990
STARLINK-1132,45044,53.0542,0.0001361,15.06406277,546.2497825836954,548.1348572245724,1 45044U 20006A   25302.55185701  .00001293  00000+0  10568-3 0  9996,2 45044  53.0542 135.3211 0001361  85.6018 274.5127 15.06406277316975
STARLINK-1131,45047,53.054,0.0001562,15.06402427,546.1223812599437,548.2858578256883,1 45047U 20006D   25302.85970486  .00000643  00000+0  62067-4 0  9994,2 45047  53.0540 154.4780 0001562  89.9797 270.1371 15.06402427316733
STARLINK-1134,45048,53.0401,0.0012282,15.26667851,477.3514930892361,494.21202312665173,1 45048U 20006E   25297.87285069  .00016521  00000+0  63194-3 0  9999,2 45048  53.0401 155.6330 0012282 116.8822 243.3433 15.26667851316281
STARLINK-1156,45054,53.0518,0.0001401,15.06414287,546.1975354886818,548.1380058854293,1 45054U 20006L   25302.89649616  .00004116  00000+0  29492-3 0  9997,2 45054  53.0518 153.7739 0001401 100.4068 259.7079 15.06414287316740
STARLINK-1159,45057,53.0559,0.0001829,15.23679512,493.4964169075247,496.0105202409286,1 45057U 20006P   25303.91668980  .01974916  00000+0  73364-1 0  9999,2 45057  53.0559 148.4658 0001829  86.4046 345.7852 15.23679512  5745
STARLINK-1166,45060,53.0528,0.0001475,15.0641036,546.1583219834483,548.2012904412804,1 45060U 20006S   25302.85595090  .00005781  00000+0  40653-3 0  9997,2 45060  53.0528 153.9563 0001475  83.0862 277.0295 15.06410360316745
STARLINK-1169,45061,53.0529,0.0001282,15.06410629,546.291156266815,548.0668072845428,1 45061U 20006T   25302.86331460  .00003707  00000+0  26754-3 0  9990,2 45061  53.0529 153.9234 0001282  94.2236 265.8900 15.06410629316743
STARLINK-1171,45062,53.0546,6.18e-05,15.28880052,478.7352505122208,479.5828123017018,1 45062U 20006U   25302.85431306  .00012711  00000+0  45864-3 0  9998,2 45062  53.0546 151.9230 0000618  82.2578 277.8491 15.28880052316771
STARLINK-1133,45064,53.0504,0.000128,15.06404445,546.3114918153342,548.0843775586136,1 45064U 20006W   25303.25955782  .00001652  00000+0  12977-3 0  9995,2 45064  53.0504 132.1397 0001280  90.2930 269.8206 15.06404445317083
STARLINK-1167,45071,53.0531,0.000141,15.06407528,546.2120149050943,548.1649566920887,1 45071U 20006AD  25302.82092149  .00001512  00000+0  12039-3 0  9998,2 45071  53.0531 134.1117 0001410  92.2454 267.8697 15.06407528317011
